[{"OBJECT_NAME":"BUFENG 1B","OBJECT_ID":"2019-032B","EPOCH":"2026-03-09T19:57:27.457920","MEAN_MOTION":15.25619535,"ECCENTRICITY":0.00242037,"INCLINATION":44.9701,"RA_OF_ASC_NODE":192.0248,"ARG_OF_PERICENTER":123.8847,"MEAN_ANOMALY":236.4342,"EPHEMERIS_TYPE":0,"CLASSIFICATION_TYPE":"U","NORAD_CAT_ID":44311,"ELEMENT_SET_NO":999,"REV_AT_EPOCH":37256,"BSTAR":0.00059375374,"MEAN_MOTION_DOT":0.00015236,"MEAN_MOTION_DDOT":0},{"OBJECT_NAME":"STARLINK-34469","OBJECT_ID":"2025-137X","EPOCH":"2026-03-09T22:05:41.409888","MEAN_MOTION":15.30205059,"ECCENTRICITY":0.00010363,"INCLINATION":53.1596,"RA_OF_ASC_NODE":333.9228,"ARG_OF_PERICENTER":73.1634,"MEAN_ANOMALY":286.948,"EPHEMERIS_TYPE":0,"CLASSIFICATION_TYPE":"U","NORAD_CAT_ID":64615,"ELEMENT_SET_NO":999,"REV_AT_EPOCH":4077,"BSTAR":0.00082345756,"MEAN_MOTION_DOT":0.00024112,"MEAN_MOTION_DDOT":0}]
